{
    "CCSDS_OMM_VERS": "3.0",
    "COMMENT": "GENERATED VIA SPACE-TRACK.ORG API",
    "CREATION_DATE": "2025-05-22T22:26:24",
    "ORIGINATOR": "18 SPCS",
    "OBJECT_NAME": "GALILEO 11 (268)",
    "OBJECT_ID": "2015-079B",
    "CENTER_NAME": "EARTH",
    "REF_FRAME": "TEME",
    "TIME_SYSTEM": "UTC",
    "MEAN_ELEMENT_THEORY": "SGP4",
    "EPOCH": "2025-05-22T00:10:16.185792",
    "MEAN_MOTION": "1.70473886",
    "ECCENTRICITY": "0.00049370",
    "INCLINATION": "55.5974",
    "RA_OF_ASC_NODE": "112.0003",
    "ARG_OF_PERICENTER": "323.5106",
    "MEAN_ANOMALY": "36.4306",
    "EPHEMERIS_TYPE": "0",
    "CLASSIFICATION_TYPE": "U",
    "NORAD_CAT_ID": "41175",
    "ELEMENT_SET_NO": "999",
    "REV_AT_EPOCH": "5868",
    "BSTAR": "0.00000000000000",
    "MEAN_MOTION_DOT": "0.00000061",
    "MEAN_MOTION_DDOT": "0.0000000000000",
    "SEMIMAJOR_AXIS": "29600.333",
    "PERIOD": "844.704",
    "APOAPSIS": "23236.812",
    "PERIAPSIS": "23207.585",
    "OBJECT_TYPE": "PAYLOAD",
    "RCS_SIZE": "LARGE",
    "COUNTRY_CODE": "ESA",
    "LAUNCH_DATE": "2015-12-17",
    "SITE": "FRGUI",
    "DECAY_DATE": null,
    "FILE": "4736252",
    "GP_ID": "288159968",
    "TLE_LINE0": "0 GALILEO 11 (268)",
    "TLE_LINE1": "1 41175U 15079B   25142.00713178  .00000061  00000-0  00000+0 0  9997",
    "TLE_LINE2": "2 41175  55.5974 112.0003 0004937 323.5106  36.4306  1.70473886 58688"
}